[
  {
    "OBJECT_NAME": "STARLINK-2511",
    "OBJECT_ID": "21036BJ",
    "EPOCH": "2025-11-11T08:00:03.000384",
    "MEAN_MOTION": 15.5084243,
    "ECCENTRICITY": 0.0001198,
    "INCLINATION": 53.0536,
    "RA_OF_ASC_NODE": 269.2349,
    "ARG_OF_PERICENTER": 82.6524,
    "MEAN_ANOMALY": 120.9888,
    "EPHEMERIS_TYPE": 0,
    "CLASSIFICATION_TYPE": "U",
    "NORAD_CAT_ID": 48332,
    "ELEMENT_SET_NO": 999,
    "REV_AT_EPOCH": 540,
    "BSTAR": 0.020168000000000002,
    "MEAN_MOTION_DOT": 0.01313781,
    "MEAN_MOTION_DDOT": 0.0,
    "TLE_LINE1": "1 48332U 21036BJ  25315.33336806  .01313781  00000+0  20168-1 0  9991",
    "TLE_LINE2": "2 48332  53.0536 269.2349 0001198  82.6524 120.9888 15.50842430  5402",
    "COMMENT": "Grouped by shell and plane from TLE"
  },
  {
    "OBJECT_NAME": "STARLINK-30514",
    "OBJECT_ID": "23156A",
    "EPOCH": "2025-11-11T05:45:19.012896",
    "MEAN_MOTION": 15.30197812,
    "ECCENTRICITY": 0.0001292,
    "INCLINATION": 53.1595,
    "RA_OF_ASC_NODE": 268.3607,
    "ARG_OF_PERICENTER": 80.9634,
    "MEAN_ANOMALY": 279.1513,
    "EPHEMERIS_TYPE": 0,
    "CLASSIFICATION_TYPE": "U",
    "NORAD_CAT_ID": 58028,
    "ELEMENT_SET_NO": 999,
    "REV_AT_EPOCH": 11818,
    "BSTAR": 0.00016657,
    "MEAN_MOTION_DOT": 4.577e-05,
    "MEAN_MOTION_DDOT": 0.0,
    "TLE_LINE1": "1 58028U 23156A   25315.23980339  .00004577  00000+0  16657-3 0  9993",
    "TLE_LINE2": "2 58028  53.1595 268.3607 0001292  80.9634 279.1513 15.30197812118183",
    "COMMENT": "Grouped by shell and plane from TLE"
  },
  {
    "OBJECT_NAME": "STARLINK-30518",
    "OBJECT_ID": "23156B",
    "EPOCH": "2025-11-11T05:58:59.450880",
    "MEAN_MOTION": 15.30197188,
    "ECCENTRICITY": 0.0001354,
    "INCLINATION": 53.1623,
    "RA_OF_ASC_NODE": 268.4274,
    "ARG_OF_PERICENTER": 103.6043,
    "MEAN_ANOMALY": 256.5109,
    "EPHEMERIS_TYPE": 0,
    "CLASSIFICATION_TYPE": "U",
    "NORAD_CAT_ID": 58029,
    "ELEMENT_SET_NO": 999,
    "REV_AT_EPOCH": 11818,
    "BSTAR": 8.596500000000001e-05,
    "MEAN_MOTION_DOT": 2.187e-05,
    "MEAN_MOTION_DDOT": 0.0,
    "TLE_LINE1": "1 58029U 23156B   25315.24929920  .00002187  00000+0  85965-4 0  9998",
    "TLE_LINE2": "2 58029  53.1623 268.4274 0001354 103.6043 256.5109 15.30197188118189",
    "COMMENT": "Grouped by shell and plane from TLE"
  },
  {
    "OBJECT_NAME": "STARLINK-30549",
    "OBJECT_ID": "23156C",
    "EPOCH": "2025-11-11T06:36:56.137536",
    "MEAN_MOTION": 15.30199606,
    "ECCENTRICITY": 0.0001264,
    "INCLINATION": 53.1612,
    "RA_OF_ASC_NODE": 268.4029,
    "ARG_OF_PERICENTER": 95.5031,
    "MEAN_ANOMALY": 264.6114,
    "EPHEMERIS_TYPE": 0,
    "CLASSIFICATION_TYPE": "U",
    "NORAD_CAT_ID": 58030,
    "ELEMENT_SET_NO": 999,
    "REV_AT_EPOCH": 11813,
    "BSTAR": 5.581800000000001e-05,
    "MEAN_MOTION_DOT": 1.294e-05,
    "MEAN_MOTION_DDOT": 0.0,
    "TLE_LINE1": "1 58030U 23156C   25315.27564974  .00001294  00000+0  55818-4 0  9999",
    "TLE_LINE2": "2 58030  53.1612 268.4029 0001264  95.5031 264.6114 15.30199606118131",
    "COMMENT": "Grouped by shell and plane from TLE"
  },
  {
    "OBJECT_NAME": "STARLINK-30561",
    "OBJECT_ID": "23156E",
    "EPOCH": "2025-11-11T06:46:03.396000",
    "MEAN_MOTION": 15.30202358,
    "ECCENTRICITY": 0.0001288,
    "INCLINATION": 53.1605,
    "RA_OF_ASC_NODE": 268.4438,
    "ARG_OF_PERICENTER": 84.2424,
    "MEAN_ANOMALY": 275.8724,
    "EPHEMERIS_TYPE": 0,
    "CLASSIFICATION_TYPE": "U",
    "NORAD_CAT_ID": 58032,
    "ELEMENT_SET_NO": 999,
    "REV_AT_EPOCH": 11818,
    "BSTAR": 0.00015637000000000002,
    "MEAN_MOTION_DOT": 4.275e-05,
    "MEAN_MOTION_DDOT": 0.0,
    "TLE_LINE1": "1 58032U 23156E   25315.28198375  .00004275  00000+0  15637-3 0  9996",
    "TLE_LINE2": "2 58032  53.1605 268.4438 0001288  84.2424 275.8724 15.30202358118181",
    "COMMENT": "Grouped by shell and plane from TLE"
  },
  {
    "OBJECT_NAME": "STARLINK-30565",
    "OBJECT_ID": "23156G",
    "EPOCH": "2025-11-11T03:40:59.865024",
    "MEAN_MOTION": 15.30187595,
    "ECCENTRICITY": 0.0001294,
    "INCLINATION": 53.1608,
    "RA_OF_ASC_NODE": 269.072,
    "ARG_OF_PERICENTER": 112.0016,
    "MEAN_ANOMALY": 248.1122,
    "EPHEMERIS_TYPE": 0,
    "CLASSIFICATION_TYPE": "U",
    "NORAD_CAT_ID": 58034,
    "ELEMENT_SET_NO": 999,
    "REV_AT_EPOCH": 11816,
    "BSTAR": 0.00016064,
    "MEAN_MOTION_DOT": 4.4e-05,
    "MEAN_MOTION_DDOT": 0.0,
    "TLE_LINE1": "1 58034U 23156G   25315.15347066  .00004400  00000+0  16064-3 0  9992",
    "TLE_LINE2": "2 58034  53.1608 269.0720 0001294 112.0016 248.1122 15.30187595118169",
    "COMMENT": "Grouped by shell and plane from TLE"
  },
  {
    "OBJECT_NAME": "STARLINK-30438",
    "OBJECT_ID": "23156H",
    "EPOCH": "2025-11-11T05:37:42.906432",
    "MEAN_MOTION": 15.30196256,
    "ECCENTRICITY": 0.0001433,
    "INCLINATION": 53.1607,
    "RA_OF_ASC_NODE": 268.3254,
    "ARG_OF_PERICENTER": 98.2836,
    "MEAN_ANOMALY": 261.8328,
    "EPHEMERIS_TYPE": 0,
    "CLASSIFICATION_TYPE": "U",
    "NORAD_CAT_ID": 58035,
    "ELEMENT_SET_NO": 999,
    "REV_AT_EPOCH": 11813,
    "BSTAR": 8.4236e-05,
    "MEAN_MOTION_DOT": 2.136e-05,
    "MEAN_MOTION_DDOT": 0.0,
    "TLE_LINE1": "1 58035U 23156H   25315.23452438  .00002136  00000+0  84236-4 0  9993",
    "TLE_LINE2": "2 58035  53.1607 268.3254 0001433  98.2836 261.8328 15.30196256118134",
    "COMMENT": "Grouped by shell and plane from TLE"
  },
  {
    "OBJECT_NAME": "STARLINK-30437",
    "OBJECT_ID": "23156J",
    "EPOCH": "2025-11-11T05:49:52.016160",
    "MEAN_MOTION": 15.30197666,
    "ECCENTRICITY": 8.2e-05,
    "INCLINATION": 53.1593,
    "RA_OF_ASC_NODE": 268.3727,
    "ARG_OF_PERICENTER": 92.5458,
    "MEAN_ANOMALY": 267.5637,
    "EPHEMERIS_TYPE": 0,
    "CLASSIFICATION_TYPE": "U",
    "NORAD_CAT_ID": 58036,
    "ELEMENT_SET_NO": 999,
    "REV_AT_EPOCH": 11813,
    "BSTAR": 0.00021454000000000002,
    "MEAN_MOTION_DOT": 6e-05,
    "MEAN_MOTION_DDOT": 0.0,
    "TLE_LINE1": "1 58036U 23156J   25315.24296315  .00006000  00000+0  21454-3 0  9991",
    "TLE_LINE2": "2 58036  53.1593 268.3727 0000820  92.5458 267.5637 15.30197666118132",
    "COMMENT": "Grouped by shell and plane from TLE"
  },
  {
    "OBJECT_NAME": "STARLINK-30560",
    "OBJECT_ID": "23156L",
    "EPOCH": "2025-11-11T03:05:09.174624",
    "MEAN_MOTION": 15.30202093,
    "ECCENTRICITY": 0.0001466,
    "INCLINATION": 53.1617,
    "RA_OF_ASC_NODE": 266.2377,
    "ARG_OF_PERICENTER": 75.3194,
    "MEAN_ANOMALY": 284.7969,
    "EPHEMERIS_TYPE": 0,
    "CLASSIFICATION_TYPE": "U",
    "NORAD_CAT_ID": 58038,
    "ELEMENT_SET_NO": 999,
    "REV_AT_EPOCH": 11815,
    "BSTAR": 0.00018632999999999999,
    "MEAN_MOTION_DOT": 5.163e-05,
    "MEAN_MOTION_DDOT": 0.0,
    "TLE_LINE1": "1 58038U 23156L   25315.12857841  .00005163  00000+0  18633-3 0  9991",
    "TLE_LINE2": "2 58038  53.1617 266.2377 0001466  75.3194 284.7969 15.30202093118154",
    "COMMENT": "Grouped by shell and plane from TLE"
  },
  {
    "OBJECT_NAME": "STARLINK-30542",
    "OBJECT_ID": "23156P",
    "EPOCH": "2025-11-11T03:57:37.276992",
    "MEAN_MOTION": 15.301945,
    "ECCENTRICITY": 0.0001269,
    "INCLINATION": 53.1592,
    "RA_OF_ASC_NODE": 268.7692,
    "ARG_OF_PERICENTER": 88.5202,
    "MEAN_ANOMALY": 271.5944,
    "EPHEMERIS_TYPE": 0,
    "CLASSIFICATION_TYPE": "U",
    "NORAD_CAT_ID": 58041,
    "ELEMENT_SET_NO": 999,
    "REV_AT_EPOCH": 11816,
    "BSTAR": 4.5183000000000004e-05,
    "MEAN_MOTION_DOT": 9.79e-06,
    "MEAN_MOTION_DDOT": 0.0,
    "TLE_LINE1": "1 58041U 23156P   25315.16501478  .00000979  00000+0  45183-4 0  9992",
    "TLE_LINE2": "2 58041  53.1592 268.7692 0001269  88.5202 271.5944 15.30194500118165",
    "COMMENT": "Grouped by shell and plane from TLE"
  },
  {
    "OBJECT_NAME": "STARLINK-30563",
    "OBJECT_ID": "23156Q",
    "EPOCH": "2025-11-11T03:55:15.902400",
    "MEAN_MOTION": 15.30197835,
    "ECCENTRICITY": 0.0001093,
    "INCLINATION": 53.1609,
    "RA_OF_ASC_NODE": 266.3025,
    "ARG_OF_PERICENTER": 83.9763,
    "MEAN_ANOMALY": 276.1363,
    "EPHEMERIS_TYPE": 0,
    "CLASSIFICATION_TYPE": "U",
    "NORAD_CAT_ID": 58042,
    "ELEMENT_SET_NO": 999,
    "REV_AT_EPOCH": 11820,
    "BSTAR": 6.9999e-05,
    "MEAN_MOTION_DOT": 1.714e-05,
    "MEAN_MOTION_DDOT": 0.0,
    "TLE_LINE1": "1 58042U 23156Q   25315.16337850  .00001714  00000+0  69999-4 0  9993",
    "TLE_LINE2": "2 58042  53.1609 266.3025 0001093  83.9763 276.1363 15.30197835118200",
    "COMMENT": "Grouped by shell and plane from TLE"
  },
  {
    "OBJECT_NAME": "STARLINK-30564",
    "OBJECT_ID": "23156R",
    "EPOCH": "2025-11-11T06:50:36.829536",
    "MEAN_MOTION": 15.30193272,
    "ECCENTRICITY": 0.0001245,
    "INCLINATION": 53.159,
    "RA_OF_ASC_NODE": 268.4642,
    "ARG_OF_PERICENTER": 109.0876,
    "MEAN_ANOMALY": 251.026,
    "EPHEMERIS_TYPE": 0,
    "CLASSIFICATION_TYPE": "U",
    "NORAD_CAT_ID": 58043,
    "ELEMENT_SET_NO": 999,
    "REV_AT_EPOCH": 11818,
    "BSTAR": 0.0,
    "MEAN_MOTION_DOT": -0.00017749,
    "MEAN_MOTION_DDOT": 0.0,
    "TLE_LINE1": "1 58043U 23156R   25315.28514849 -.00017749  00000+0 -58869-3 0  9992",
    "TLE_LINE2": "2 58043  53.1590 268.4642 0001245 109.0876 251.0260 15.30193272118188",
    "COMMENT": "Grouped by shell and plane from TLE"
  },
  {
    "OBJECT_NAME": "STARLINK-31468",
    "OBJECT_ID": "24036A",
    "EPOCH": "2025-11-11T06:00:24.668928",
    "MEAN_MOTION": 15.30192219,
    "ECCENTRICITY": 0.000121,
    "INCLINATION": 53.1619,
    "RA_OF_ASC_NODE": 267.9935,
    "ARG_OF_PERICENTER": 97.3333,
    "MEAN_ANOMALY": 262.7805,
    "EPHEMERIS_TYPE": 0,
    "CLASSIFICATION_TYPE": "U",
    "NORAD_CAT_ID": 58998,
    "ELEMENT_SET_NO": 999,
    "REV_AT_EPOCH": 9720,
    "BSTAR": 4.5137e-05,
    "MEAN_MOTION_DOT": 9.78e-06,
    "MEAN_MOTION_DDOT": 0.0,
    "TLE_LINE1": "1 58998U 24036A   25315.25028552  .00000978  00000+0  45137-4 0  9996",
    "TLE_LINE2": "2 58998  53.1619 267.9935 0001210  97.3333 262.7805 15.30192219 97200",
    "COMMENT": "Grouped by shell and plane from TLE"
  }
]